[{"OBJECT_NAME":"KENT RIDGE 1","OBJECT_ID":"2015-077B","EPOCH":"2026-03-03T23:16:29.506944","MEAN_MOTION":15.22395577,"ECCENTRICITY":0.0008417,"INCLINATION":14.9805,"RA_OF_ASC_NODE":328.0772,"ARG_OF_PERICENTER":196.0316,"MEAN_ANOMALY":163.974,"EPHEMERIS_TYPE":0,"CLASSIFICATION_TYPE":"U","NORAD_CAT_ID":41167,"ELEMENT_SET_NO":999,"REV_AT_EPOCH":56503,"BSTAR":0.0002288,"MEAN_MOTION_DOT":6.215e-5,"MEAN_MOTION_DDOT":0},{"OBJECT_NAME":"GAOFEN-4","OBJECT_ID":"2015-083A","EPOCH":"2026-03-04T00:50:48.231744","MEAN_MOTION":1.00269549,"ECCENTRICITY":0.0003668,"INCLINATION":0.3787,"RA_OF_ASC_NODE":83.8226,"ARG_OF_PERICENTER":85.1751,"MEAN_ANOMALY":111.1639,"EPHEMERIS_TYPE":0,"CLASSIFICATION_TYPE":"U","NORAD_CAT_ID":41194,"ELEMENT_SET_NO":999,"REV_AT_EPOCH":3747,"BSTAR":0,"MEAN_MOTION_DOT":-3.47e-6,"MEAN_MOTION_DDOT":0},{"OBJECT_NAME":"JASON-3","OBJECT_ID":"2016-002A","EPOCH":"2026-03-04T03:33:29.937024","MEAN_MOTION":12.87628154,"ECCENTRICITY":0.0007835,"INCLINATION":66.0449,"RA_OF_ASC_NODE":346.6706,"ARG_OF_PERICENTER":276.8059,"MEAN_ANOMALY":83.2069,"EPHEMERIS_TYPE":0,"CLASSIFICATION_TYPE":"U","NORAD_CAT_ID":41240,"ELEMENT_SET_NO":999,"REV_AT_EPOCH":47372,"BSTAR":0.00012474,"MEAN_MOTION_DOT":-3.1e-7,"MEAN_MOTION_DDOT":0},{"OBJECT_NAME":"SENTINEL-3A","OBJECT_ID":"2016-011A","EPOCH":"2026-03-04T03:53:13.337952","MEAN_MOTION":14.2673952,"ECCENTRICITY":0.0001231,"INCLINATION":98.6239,"RA_OF_ASC_NODE":132.029,"ARG_OF_PERICENTER":100.5302,"MEAN_ANOMALY":259.6017,"EPHEMERIS_TYPE":0,"CLASSIFICATION_TYPE":"U","NORAD_CAT_ID":41335,"ELEMENT_SET_NO":999,"REV_AT_EPOCH":52308,"BSTAR":9.2727e-5,"MEAN_MOTION_DOT":1.81e-6,"MEAN_MOTION_DDOT":0},{"OBJECT_NAME":"ZIYUAN 3-02 (ZY 3-02)","OBJECT_ID":"2016-033A","EPOCH":"2026-03-04T05:10:43.424832","MEAN_MOTION":15.21460372,"ECCENTRICITY":0.0011276,"INCLINATION":97.3912,"RA_OF_ASC_NODE":140.9696,"ARG_OF_PERICENTER":320.3889,"MEAN_ANOMALY":39.6522,"EPHEMERIS_TYPE":0,"CLASSIFICATION_TYPE":"U","NORAD_CAT_ID":41556,"ELEMENT_SET_NO":999,"REV_AT_EPOCH":54202,"BSTAR":0.00047999,"MEAN_MOTION_DOT":0.00010743,"MEAN_MOTION_DDOT":0},{"OBJECT_NAME":"CARTOSAT-2C","OBJECT_ID":"2016-040A","EPOCH":"2026-03-04T04:54:47.477088","MEAN_MOTION":15.19297385,"ECCENTRICITY":0.0010544,"INCLINATION":97.4621,"RA_OF_ASC_NODE":124.5555,"ARG_OF_PERICENTER":140.386,"MEAN_ANOMALY":219.8147,"EPHEMERIS_TYPE":0,"CLASSIFICATION_TYPE":"U","NORAD_CAT_ID":41599,"ELEMENT_SET_NO":999,"REV_AT_EPOCH":53777,"BSTAR":0.00016812,"MEAN_MOTION_DOT":3.484e-5,"MEAN_MOTION_DDOT":0},{"OBJECT_NAME":"SKYSAT-C1","OBJECT_ID":"2016-040C","EPOCH":"2026-03-04T00:39:23.083200","MEAN_MOTION":15.34372744,"ECCENTRICITY":0.0003952,"INCLINATION":96.9703,"RA_OF_ASC_NODE":100.5072,"ARG_OF_PERICENTER":64.6363,"MEAN_ANOMALY":295.529,"EPHEMERIS_TYPE":0,"CLASSIFICATION_TYPE":"U","NORAD_CAT_ID":41601,"ELEMENT_SET_NO":999,"REV_AT_EPOCH":54173,"BSTAR":0.00040737,"MEAN_MOTION_DOT":0.00013497,"MEAN_MOTION_DDOT":0},{"OBJECT_NAME":"LAPAN-A3","OBJECT_ID":"2016-040E","EPOCH":"2026-03-04T03:32:55.991328","MEAN_MOTION":15.32319383,"ECCENTRICITY":0.001167,"INCLINATION":97.1474,"RA_OF_ASC_NODE":62.8126,"ARG_OF_PERICENTER":41.0689,"MEAN_ANOMALY":319.143,"EPHEMERIS_TYPE":0,"CLASSIFICATION_TYPE":"U","NORAD_CAT_ID":41603,"ELEMENT_SET_NO":999,"REV_AT_EPOCH":53872,"BSTAR":0.00018888,"MEAN_MOTION_DOT":5.831e-5,"MEAN_MOTION_DDOT":0},{"OBJECT_NAME":"GAOFEN-3","OBJECT_ID":"2016-049A","EPOCH":"2026-03-04T04:25:51.775392","MEAN_MOTION":14.42215001,"ECCENTRICITY":0.000163,"INCLINATION":98.4047,"RA_OF_ASC_NODE":72.5393,"ARG_OF_PERICENTER":94.6227,"MEAN_ANOMALY":265.5149,"EPHEMERIS_TYPE":0,"CLASSIFICATION_TYPE":"U","NORAD_CAT_ID":41727,"ELEMENT_SET_NO":999,"REV_AT_EPOCH":50351,"BSTAR":8.0024e-5,"MEAN_MOTION_DOT":2.2e-6,"MEAN_MOTION_DDOT":0},{"OBJECT_NAME":"SKYSAT-C4","OBJECT_ID":"2016-058B","EPOCH":"2026-03-04T03:37:32.881728","MEAN_MOTION":15.45142845,"ECCENTRICITY":8.6e-5,"INCLINATION":96.929,"RA_OF_ASC_NODE":89.506,"ARG_OF_PERICENTER":82.9746,"MEAN_ANOMALY":277.1602,"EPHEMERIS_TYPE":0,"CLASSIFICATION_TYPE":"U","NORAD_CAT_ID":41771,"ELEMENT_SET_NO":999,"REV_AT_EPOCH":52923,"BSTAR":0.00050003,"MEAN_MOTION_DOT":0.00023646,"MEAN_MOTION_DDOT":0},{"OBJECT_NAME":"SKYSAT-C5","OBJECT_ID":"2016-058C","EPOCH":"2026-03-04T00:29:58.007328","MEAN_MOTION":15.34158742,"ECCENTRICITY":0.0001878,"INCLINATION":97.0623,"RA_OF_ASC_NODE":108.3298,"ARG_OF_PERICENTER":85.6544,"MEAN_ANOMALY":274.4915,"EPHEMERIS_TYPE":0,"CLASSIFICATION_TYPE":"U","NORAD_CAT_ID":41772,"ELEMENT_SET_NO":999,"REV_AT_EPOCH":52762,"BSTAR":0.00037953,"MEAN_MOTION_DOT":0.0001248,"MEAN_MOTION_DDOT":0},{"OBJECT_NAME":"SKYSAT-C2","OBJECT_ID":"2016-058D","EPOCH":"2026-03-04T01:17:30.262272","MEAN_MOTION":15.39520258,"ECCENTRICITY":0.0005284,"INCLINATION":97.028,"RA_OF_ASC_NODE":89.2282,"ARG_OF_PERICENTER":81.1583,"MEAN_ANOMALY":279.0262,"EPHEMERIS_TYPE":0,"CLASSIFICATION_TYPE":"U","NORAD_CAT_ID":41773,"ELEMENT_SET_NO":999,"REV_AT_EPOCH":52886,"BSTAR":0.00045017,"MEAN_MOTION_DOT":0.00017629,"MEAN_MOTION_DDOT":0},{"OBJECT_NAME":"SKYSAT-C3","OBJECT_ID":"2016-058E","EPOCH":"2026-03-04T01:32:18.354912","MEAN_MOTION":15.48020744,"ECCENTRICITY":0.0001528,"INCLINATION":96.9182,"RA_OF_ASC_NODE":98.1747,"ARG_OF_PERICENTER":100.848,"MEAN_ANOMALY":259.2944,"EPHEMERIS_TYPE":0,"CLASSIFICATION_TYPE":"U","NORAD_CAT_ID":41774,"ELEMENT_SET_NO":999,"REV_AT_EPOCH":52982,"BSTAR":0.00058203,"MEAN_MOTION_DOT":0.00030426,"MEAN_MOTION_DDOT":0},{"OBJECT_NAME":"ALSAT-1B","OBJECT_ID":"2016-059C","EPOCH":"2026-03-04T03:58:46.568064","MEAN_MOTION":14.72180146,"ECCENTRICITY":0.0008691,"INCLINATION":97.7799,"RA_OF_ASC_NODE":76.4473,"ARG_OF_PERICENTER":195.8269,"MEAN_ANOMALY":164.2669,"EPHEMERIS_TYPE":0,"CLASSIFICATION_TYPE":"U","NORAD_CAT_ID":41785,"ELEMENT_SET_NO":999,"REV_AT_EPOCH":50512,"BSTAR":7.2888e-5,"MEAN_MOTION_DOT":4.12e-6,"MEAN_MOTION_DDOT":0},{"OBJECT_NAME":"PATHFINDER 1","OBJECT_ID":"2016-059E","EPOCH":"2026-03-03T22:26:16.539360","MEAN_MOTION":14.67506591,"ECCENTRICITY":0.0028457,"INCLINATION":97.8174,"RA_OF_ASC_NODE":66.9703,"ARG_OF_PERICENTER":178.9948,"MEAN_ANOMALY":181.1319,"EPHEMERIS_TYPE":0,"CLASSIFICATION_TYPE":"U","NORAD_CAT_ID":41787,"ELEMENT_SET_NO":999,"REV_AT_EPOCH":50427,"BSTAR":0.00020683,"MEAN_MOTION_DOT":1.132e-5,"MEAN_MOTION_DDOT":0},{"OBJECT_NAME":"SCATSAT 1","OBJECT_ID":"2016-059H","EPOCH":"2026-03-04T04:11:40.166016","MEAN_MOTION":14.79242667,"ECCENTRICITY":0.0054068,"INCLINATION":98.1314,"RA_OF_ASC_NODE":125.8229,"ARG_OF_PERICENTER":225.5115,"MEAN_ANOMALY":134.167,"EPHEMERIS_TYPE":0,"CLASSIFICATION_TYPE":"U","NORAD_CAT_ID":41790,"ELEMENT_SET_NO":999,"REV_AT_EPOCH":8606,"BSTAR":0.00027873,"MEAN_MOTION_DOT":2.065e-5,"MEAN_MOTION_DDOT":0},{"OBJECT_NAME":"GOKTURK 1A","OBJECT_ID":"2016-073A","EPOCH":"2026-03-04T04:15:17.175168","MEAN_MOTION":14.62742457,"ECCENTRICITY":0.0001362,"INCLINATION":98.1379,"RA_OF_ASC_NODE":319.4312,"ARG_OF_PERICENTER":77.3521,"MEAN_ANOMALY":282.7833,"EPHEMERIS_TYPE":0,"CLASSIFICATION_TYPE":"U","NORAD_CAT_ID":41875,"ELEMENT_SET_NO":999,"REV_AT_EPOCH":49347,"BSTAR":0.00010604,"MEAN_MOTION_DOT":4.94e-6,"MEAN_MOTION_DDOT":0}]
