KENT RIDGE 1            
1 41167U 15077B   26062.96978596  .00006215  00000+0  22880-3 0  9990
2 41167  14.9805 328.0772 0008417 196.0316 163.9740 15.22395577565038
GAOFEN-4                
1 41194U 15083A   26063.03528046 -.00000347  00000+0  00000+0 0  9994
2 41194   0.3787  83.8226 0003668  85.1751 111.1639  1.00269549 37474
JASON-3                 
1 41240U 16002A   26063.14826316 -.00000031  00000+0  12474-3 0  9993
2 41240  66.0449 346.6706 0007835 276.8059  83.2069 12.87628154473729
SENTINEL-3A             
1 41335U 16011A   26063.16195993  .00000181  00000+0  92727-4 0  9995
2 41335  98.6239 132.0290 0001231 100.5302 259.6017 14.26739520523087
ZIYUAN 3-02 (ZY 3-02)   
1 41556U 16033A   26063.21578038  .00010743  00000+0  47999-3 0  9990
2 41556  97.3912 140.9696 0011276 320.3889  39.6522 15.21460372542020
CARTOSAT-2C             
1 41599U 16040A   26063.20471617  .00003484  00000+0  16812-3 0  9993
2 41599  97.4621 124.5555 0010544 140.3860 219.8147 15.19297385537773
SKYSAT-C1               
1 41601U 16040C   26063.02735050  .00013497  00000+0  40737-3 0  9999
2 41601  96.9703 100.5072 0003952  64.6363 295.5290 15.34372744541732
LAPAN-A3                
1 41603U 16040E   26063.14787027  .00005831  00000+0  18888-3 0  9990
2 41603  97.1474  62.8126 0011670  41.0689 319.1430 15.32319383538720
GAOFEN-3                
1 41727U 16049A   26063.18462703  .00000220  00000+0  80024-4 0  9990
2 41727  98.4047  72.5393 0001630  94.6227 265.5149 14.42215001503510
SKYSAT-C4               
1 41771U 16058B   26063.15107502  .00023646  00000+0  50003-3 0  9999
2 41771  96.9290  89.5060 0000860  82.9746 277.1602 15.45142845529230
SKYSAT-C5               
1 41772U 16058C   26063.02081027  .00012480  00000+0  37953-3 0  9992
2 41772  97.0623 108.3298 0001878  85.6544 274.4915 15.34158742527621
SKYSAT-C2               
1 41773U 16058D   26063.05382248  .00017629  00000+0  45017-3 0  9995
2 41773  97.0280  89.2282 0005284  81.1583 279.0262 15.39520258528863
SKYSAT-C3               
1 41774U 16058E   26063.06410133  .00030426  00000+0  58203-3 0  9993
2 41774  96.9182  98.1747 0001528 100.8480 259.2944 15.48020744529829
ALSAT-1B                
1 41785U 16059C   26063.16581676  .00000412  00000+0  72888-4 0  9996
2 41785  97.7799  76.4473 0008691 195.8269 164.2669 14.72180146505121
PATHFINDER 1            
1 41787U 16059E   26062.93491365  .00001132  00000+0  20683-3 0  9992
2 41787  97.8174  66.9703 0028457 178.9948 181.1319 14.67506591504274
SCATSAT 1               
1 41790U 16059H   26063.17477044  .00002065  00000+0  27873-3 0  9995
2 41790  98.1314 125.8229 0054068 225.5115 134.1670 14.79242667 86062
GOKTURK 1A              
1 41875U 16073A   26063.17728212  .00000494  00000+0  10604-3 0  9999
2 41875  98.1379 319.4312 0001362  77.3521 282.7833 14.62742457493476
